{"epoch":1784762836,"count":18316,"objects":[{"id":"53175","name":"STARLINK-4292","type":"PAYLOAD","l1":"1 53175U 22083AV  26203.58336806  .00043918  00000-0  25307-2 0  9992","l2":"2 53175  53.1591 288.2245 0001476  39.9464 136.2674 15.11995140  5786"},{"id":"53176","name":"STARLINK-4294","type":"PAYLOAD","l1":"1 53176U 22083AW  26203.58336806  .00072535  00000-0  25056-2 0  9991","l2":"2 53176  53.1607 261.7026 0001132  69.9026 102.6194 15.29302845  5804"},{"id":"53177","name":"STARLINK-4298","type":"PAYLOAD","l1":"1 53177U 22083AX  26203.58336806  .00126458  00000-0  51385-2 0  9990","l2":"2 53177  53.1608 252.1768 0001703  68.4146  95.4534 15.23611938  5441"},{"id":"53178","name":"STARLINK-4280","type":"PAYLOAD","l1":"1 53178U 22083AY  26203.34900439  .00001158  00000-0  90827-4 0  9999","l2":"2 53178  53.1602 279.3094 0000946  80.5004 279.6094 15.08841326221676"},{"id":"53179","name":"STARLINK-4276","type":"PAYLOAD","l1":"1 53179U 22083AZ  26203.58336806  .00107079  00000-0  44650-2 0  9997","l2":"2 53179  53.1586 237.1922 0001558  85.9940 129.7219 15.22843846  5790"},{"id":"53180","name":"STARLINK-4258","type":"PAYLOAD","l1":"1 53180U 22083BA  26203.58336806  .01248912  00000-0  43961-1 0  9995","l2":"2 53180  53.1607 237.3457 0001873  76.8980  59.1937 15.25929366  5804"},{"id":"53182","name":"STARLINK-4278","type":"PAYLOAD","l1":"1 53182U 22083BC  26203.58336806  .00061581  00000-0  17636-2 0  9992","l2":"2 53182  53.1607 249.8950 0001255  88.3215 187.6080 15.35369796  5784"},{"id":"53183","name":"STARLINK-4268","type":"PAYLOAD","l1":"1 53183U 22083BD  26203.58336806  .00119665  00000-0  46811-2 0  9997","l2":"2 53183  53.1584 242.0413 0001916  72.5037  96.4542 15.24924110  5795"},{"id":"53184","name":"STARLINK-4257","type":"PAYLOAD","l1":"1 53184U 22083BE  26203.58336806  .00115745  00000-0  49594-2 0  9994","l2":"2 53184  53.1608 237.4887 0001509  48.5547  24.3292 15.21872993  5759"},{"id":"53189","name":"STARLINK-4391","type":"PAYLOAD","l1":"1 53189U 22084A   26203.13546004  .00000178  00000-0  16228-4 0  9997","l2":"2 53189  97.2830 261.3369 0001821 125.0433 235.0966 15.05654306220287"},{"id":"53190","name":"STARLINK-4332","type":"PAYLOAD","l1":"1 53190U 22084B   26203.14930678 -.00000126  00000-0 -48061-5 0  9990","l2":"2 53190  97.2831 261.3845 0001842 121.6894 238.4514 15.05655245220284"},{"id":"53191","name":"STARLINK-4369","type":"PAYLOAD","l1":"1 53191U 22084C   26203.58336806  .00099681  00000-0  27313-2 0  9998","l2":"2 53191  97.5982 266.1955 0001375  93.0996 356.6849 15.36914792  5718"},{"id":"53192","name":"STARLINK-4375","type":"PAYLOAD","l1":"1 53192U 22084D   26203.57851563  .00000310  00000-0  25390-4 0  9996","l2":"2 53192  97.2852 261.7894 0001480 132.0062 228.1292 15.05656851220348"},{"id":"53193","name":"STARLINK-4351","type":"PAYLOAD","l1":"1 53193U 22084E   26203.41101595 -.00000136  00000-0 -55287-5 0  9990","l2":"2 53193  97.2826 260.5031 0001871 100.5527 259.5911 15.05654599220590"},{"id":"53194","name":"STARLINK-4382","type":"PAYLOAD","l1":"1 53194U 22084F   26203.12992190 -.00000130  00000-0 -50967-5 0  9992","l2":"2 53194  97.2829 261.3355 0001523 117.6020 242.5362 15.05656806219608"},{"id":"53197","name":"STARLINK-4403","type":"PAYLOAD","l1":"1 53197U 22084J   26203.40547795 -.00000225  00000-0 -11683-4 0  9999","l2":"2 53197  97.2807 260.4900 0002426 131.3715 228.7722 15.05654481219579"},{"id":"53198","name":"STARLINK-4385","type":"PAYLOAD","l1":"1 53198U 22084K   26203.17010911  .00000679  00000-0  50961-4 0  9992","l2":"2 53198  97.2840 260.3550 0001701 106.0700 254.0715 15.05657179220208"},{"id":"53199","name":"STARLINK-4395","type":"PAYLOAD","l1":"1 53199U 22084L   26203.17145476  .00000852  00000-0  62948-4 0  9999","l2":"2 53199  97.2838 261.4050 0001153 123.5522 236.5816 15.05657496219612"},{"id":"53200","name":"STARLINK-4417","type":"PAYLOAD","l1":"1 53200U 22084M   26203.12437809  .00000277  00000-0  23108-4 0  9997","l2":"2 53200  97.2827 261.3245 0001265 139.3855 220.7467 15.05659766220268"},{"id":"53201","name":"STARLINK-4405","type":"PAYLOAD","l1":"1 53201U 22084N   26203.58336806 -.00627185  00000-0 -16261-1 0  9997","l2":"2 53201  97.6020 267.6520 0001482  90.8251 246.5063 15.41446444  5889"},{"id":"53202","name":"STARLINK-4411","type":"PAYLOAD","l1":"1 53202U 22084P   26203.42622010  .00000042  00000-0  67855-5 0  9990","l2":"2 53202  97.2808 261.6676 0001362 127.7981 232.3370 15.05654604219658"},{"id":"53203","name":"STARLINK-4409","type":"PAYLOAD","l1":"1 53203U 22084Q   26203.15761254  .00000196  00000-0  17464-4 0  9995","l2":"2 53203  97.2818 261.4058 0001179 122.0521 238.0822 15.05657778219612"},{"id":"53204","name":"STARLINK-4410","type":"PAYLOAD","l1":"1 53204U 22084R   26203.58336806  .00095342  00000-0  26136-2 0  9995","l2":"2 53204  97.5981 265.9432 0001225  90.4965 196.0717 15.36919656  5826"},{"id":"53205","name":"STARLINK-4397","type":"PAYLOAD","l1":"1 53205U 22084S   26203.41791231 -.00000161  00000-0 -72324-5 0  9995","l2":"2 53205  97.2835 261.6601 0002149 104.5269 255.6197 15.05654269219657"},{"id":"53206","name":"STARLINK-4408","type":"PAYLOAD","l1":"1 53206U 22084T   26203.58336806  .00126259  00000-0  57206-2 0  9991","l2":"2 53206  97.2840 261.8996 0000789  60.6251 322.0215 15.20295412  5789"},{"id":"53207","name":"STARLINK-4413","type":"PAYLOAD","l1":"1 53207U 22084U   26203.12856852 -.00000242  00000-0 -12903-4 0  9992","l2":"2 53207  97.2828 260.2083 0001516 106.4634 253.6761 15.05653763219534"},{"id":"53208","name":"STARLINK-4425","type":"PAYLOAD","l1":"1 53208U 22084V   26203.59098925  .00000156  00000-0  14697-4 0  9997","l2":"2 53208  97.2861 260.7282 0001076  64.5574 295.5765 15.05658352219602"},{"id":"53209","name":"STARLINK-4423","type":"PAYLOAD","l1":"1 53209U 22084W   26203.14242342 -.00000233  00000-0 -12234-4 0  9996","l2":"2 53209  97.2827 260.3442 0001810  84.8686 275.2748 15.05654146219540"},{"id":"53210","name":"STARLINK-4427","type":"PAYLOAD","l1":"1 53210U 22084X   26203.12302852  .00000553  00000-0  42194-4 0  9990","l2":"2 53210  97.2825 260.2323 0001347 113.3746 246.7623 15.05659877220078"},{"id":"53212","name":"STARLINK-4416","type":"PAYLOAD","l1":"1 53212U 22084Z   26203.15484409  .00000048  00000-0  72384-5 0  9998","l2":"2 53212  97.2836 261.3956 0001675 133.9758 226.1608 15.05657147219601"}]}