OBJECT_NAME,OBJECT_ID,EPOCH,MEAN_MOTION,ECCENTRICITY,INCLINATION,RA_OF_ASC_NODE,ARG_OF_PERICENTER,MEAN_ANOMALY,EPHEMERIS_TYPE,CLASSIFICATION_TYPE,NORAD_CAT_ID,ELEMENT_SET_NO,REV_AT_EPOCH,BSTAR,MEAN_MOTION_DOT,MEAN_MOTION_DDOT
STARLINK-4292,2022-083AV,2026-07-22T14:00:03.000384,15.11995140,.00014759,53.1591,288.2245,39.9464,136.2674,0,U,53175,999,578,.25307368E-2,.43918E-3,0
STARLINK-4294,2022-083AW,2026-07-22T14:00:03.000384,15.29302845,.00011316,53.1607,261.7026,69.9026,102.6194,0,U,53176,999,580,.25055915E-2,.72535E-3,0
STARLINK-4298,2022-083AX,2026-07-22T14:00:03.000384,15.23611938,.00017029,53.1608,252.1768,68.4146,95.4534,0,U,53177,999,544,.51384644E-2,.126458E-2,0
STARLINK-4280,2022-083AY,2026-07-22T08:22:33.979296,15.08841326,.00009465,53.1602,279.3094,80.5004,279.6094,0,U,53178,999,22167,.90826663E-4,.1158E-4,0
STARLINK-4276,2022-083AZ,2026-07-22T14:00:03.000384,15.22843846,.00015576,53.1586,237.1922,85.9940,129.7219,0,U,53179,999,579,.44650358E-2,.107079E-2,0
STARLINK-4258,2022-083BA,2026-07-22T14:00:03.000384,15.25929366,.00018726,53.1607,237.3457,76.8980,59.1937,0,U,53180,999,580,.439605E-1,.1248912E-1,0
STARLINK-4278,2022-083BC,2026-07-22T14:00:03.000384,15.35369796,.00012545,53.1607,249.8950,88.3215,187.6080,0,U,53182,999,578,.17636036E-2,.61581E-3,0
STARLINK-4268,2022-083BD,2026-07-22T14:00:03.000384,15.24924110,.00019158,53.1584,242.0413,72.5037,96.4542,0,U,53183,999,579,.46811048E-2,.119665E-2,0
STARLINK-4257,2022-083BE,2026-07-22T14:00:03.000384,15.21872993,.00015086,53.1608,237.4887,48.5547,24.3292,0,U,53184,999,575,.49593514E-2,.115745E-2,0
STARLINK-4391,2022-084A,2026-07-22T03:15:03.747456,15.05654306,.00018212,97.2830,261.3369,125.0433,235.0966,0,U,53189,999,22028,.16228407E-4,.178E-5,0
STARLINK-4332,2022-084B,2026-07-22T03:35:00.105792,15.05655245,.00018417,97.2831,261.3845,121.6894,238.4514,0,U,53190,999,22028,-.4806121E-5,-.126E-5,0
STARLINK-4369,2022-084C,2026-07-22T14:00:03.000384,15.36914792,.00013753,97.5982,266.1955,93.0996,356.6849,0,U,53191,999,571,.2731338E-2,.99681E-3,0
STARLINK-4375,2022-084D,2026-07-22T13:53:03.750432,15.05656851,.00014804,97.2852,261.7894,132.0062,228.1292,0,U,53192,999,22034,.25389967E-4,.31E-5,0
STARLINK-4351,2022-084E,2026-07-22T09:51:51.778080,15.05654599,.00018708,97.2826,260.5031,100.5527,259.5911,0,U,53193,999,22059,-.5528711E-5,-.136E-5,0
STARLINK-4382,2022-084F,2026-07-22T03:07:05.252160,15.05656806,.00015229,97.2829,261.3355,117.6020,242.5362,0,U,53194,999,21960,-.50967E-5,-.13E-5,0
STARLINK-4403,2022-084J,2026-07-22T09:43:53.294880,15.05654481,.00024264,97.2807,260.4900,131.3715,228.7722,0,U,53197,999,21957,-.11682554E-4,-.225E-5,0
STARLINK-4385,2022-084K,2026-07-22T04:04:57.427104,15.05657179,.00017014,97.2840,260.3550,106.0700,254.0715,0,U,53198,999,22020,.50961369E-4,.679E-5,0
STARLINK-4395,2022-084L,2026-07-22T04:06:53.691264,15.05657496,.00011526,97.2838,261.4050,123.5522,236.5816,0,U,53199,999,21961,.62948234E-4,.852E-5,0
STARLINK-4417,2022-084M,2026-07-22T02:59:06.266976,15.05659766,.00012646,97.2827,261.3245,139.3855,220.7467,0,U,53200,999,22026,.2310817E-4,.277E-5,0
STARLINK-4405,2022-084N,2026-07-22T14:00:03.000384,15.41446444,.00014822,97.6020,267.6520,90.8251,246.5063,0,U,53201,999,588,-.16260886E-1,-.627185E-2,0
STARLINK-4411,2022-084P,2026-07-22T10:13:45.416640,15.05654604,.00013623,97.2808,261.6676,127.7981,232.3370,0,U,53202,999,21965,.6785529E-5,.42E-6,0
STARLINK-4409,2022-084Q,2026-07-22T03:46:57.723456,15.05657778,.00011787,97.2818,261.4058,122.0521,238.0822,0,U,53203,999,21961,.17463872E-4,.196E-5,0
STARLINK-4410,2022-084R,2026-07-22T14:00:03.000384,15.36919656,.00012254,97.5981,265.9432,90.4965,196.0717,0,U,53204,999,582,.26136439E-2,.95342E-3,0
STARLINK-4397,2022-084S,2026-07-22T10:01:47.623584,15.05654269,.00021488,97.2835,261.6601,104.5269,255.6197,0,U,53205,999,21965,-.7232428E-5,-.161E-5,0
STARLINK-4408,2022-084T,2026-07-22T14:00:03.000384,15.20295412,.00007894,97.2840,261.8996,60.6251,322.0215,0,U,53206,999,578,.57206163E-2,.126259E-2,0
STARLINK-4413,2022-084U,2026-07-22T03:05:08.320128,15.05653763,.00015158,97.2828,260.2083,106.4634,253.6761,0,U,53207,999,21953,-.12902989E-4,-.242E-5,0
STARLINK-4425,2022-084V,2026-07-22T14:11:01.471200,15.05658352,.00010759,97.2861,260.7282,64.5574,295.5765,0,U,53208,999,21960,.14696996E-4,.156E-5,0
STARLINK-4423,2022-084W,2026-07-22T03:25:05.383488,15.05654146,.00018097,97.2827,260.3442,84.8686,275.2748,0,U,53209,999,21954,-.12233846E-4,-.233E-5,0
STARLINK-4427,2022-084X,2026-07-22T02:57:09.664128,15.05659877,.00013472,97.2825,260.2323,113.3746,246.7623,0,U,53210,999,22007,.42194453E-4,.553E-5,0
STARLINK-4416,2022-084Z,2026-07-22T03:42:58.529376,15.05657147,.00016748,97.2836,261.3956,133.9758,226.1608,0,U,53212,999,21960,.7238401E-5,.48E-6,0
